NORAD_CAT_ID,OBJECT_NAME,OBJECT_TYPE,EPOCH,MEAN_MOTION,ECCENTRICITY,INCLINATION,RA_OF_ASC_NODE,ARG_OF_PERICENTER,MEAN_ANOMALY,BSTAR,MEAN_MOTION_DOT,MEAN_MOTION_DDOT,TLE_LINE0,TLE_LINE1,TLE_LINE2,SEMIMAJOR_AXIS,PERIOD,APOGEE,PERIGEE,DECAYED
55756.0,STARLINK-5614,PAYLOAD,2024-06-04 10:47:39,14.98333899,0.0002877,70.0009,66.1084,272.1134,87.9696,9.075e-05,9.9e-06,0.0,0 STARLINK-5614,1 55756U 23028R   24156.44975842  .00000990  00000-0  90750-4 0  9997,2 55756  70.0009  66.1084 0002877 272.1134  87.9696 14.98333899 69697,6950.181,96.107,574.045,570.046,0.0
55756.0,STARLINK-5614,PAYLOAD,2024-06-04 17:12:11,14.98333671,0.0002763,70.0015,65.4355,272.0787,88.0055,6.8368e-06,-1.1e-07,0.0,0 STARLINK-5614,1 55756U 23028R   24156.71680081 -.00000011  00000-0  68368-5 0  9991,2 55756  70.0015  65.4355 0002763 272.0787  88.0055 14.98333671 69738,6950.182,96.107,573.967,570.126,0.0
55756.0,STARLINK-5614,PAYLOAD,2024-06-05 10:49:40,14.98329242,0.0002539,70.0017,63.5823,277.4075,82.6795,-4.5088e-05,-6.31e-06,0.0,0 STARLINK-5614,1 55756U 23028R   24157.45116379 -.00000631  00000-0 -45088-4 0  9999,2 55756  70.0017  63.5823 0002539 277.4075  82.6795 14.98329242 69841,6950.195,96.107,573.825,570.296,0.0
55756.0,STARLINK-5614,PAYLOAD,2024-06-06 02:51:00,14.98401658,0.0002829,70.0022,61.898,277.1403,82.9434,-0.0013405,-0.0001608,0.0,0 STARLINK-5614,1 55756U 23028R   24158.11875752 -.00016080  00000-0 -13405-2 0  9991,2 55756  70.0022  61.8980 0002829 277.1403  82.9434 14.98401658 69942,6949.971,96.102,573.802,569.87,0.0
55756.0,STARLINK-5614,PAYLOAD,2024-06-06 10:51:39,14.98402431,0.0002894,70.0038,61.0578,269.3704,90.7123,-0.0013002,-0.00015601,0.0,0 STARLINK-5614,1 55756U 23028R   24158.45254165 -.00015601  00000-0 -13002-2 0  9998,2 55756  70.0038  61.0578 0002894 269.3704  90.7123 14.98402431 69990,6949.969,96.102,573.845,569.823,0.0
55756.0,STARLINK-5614,PAYLOAD,2024-06-07 17:18:14,14.98325251,0.0003127,70.0002,57.8626,266.4301,93.6501,9.3826e-05,1.027e-05,0.0,0 STARLINK-5614,1 55756U 23028R   24159.72100228  .00001027  00000-0  93826-4 0  9998,2 55756  70.0002  57.8626 0003127 266.4301  93.6501 14.98325251 70188,6950.208,96.107,574.246,569.899,0.0
55756.0,STARLINK-5614,PAYLOAD,2024-06-07 22:06:38,14.98325953,0.000313,70.0003,57.3576,266.3703,93.7098,9.4964e-05,1.04e-05,0.0,0 STARLINK-5614,1 55756U 23028R   24159.92128244  .00001040  00000-0  94964-4 0  9997,2 55756  70.0003  57.3576 0003130 266.3703  93.7098 14.98325953 70212,6950.205,96.107,574.246,569.895,0.0
55756.0,STARLINK-5614,PAYLOAD,2024-06-08 02:55:02,14.98334735,0.0003101,70.0003,56.8508,267.9831,92.0973,9.5188e-05,1.043e-05,0.0,0 STARLINK-5614,1 55756U 23028R   24160.12155722  .00001043  00000-0  95188-4 0  9994,2 55756  70.0003  56.8508 0003101 267.9831  92.0973 14.98334735 70243,6950.178,96.107,574.198,569.888,0.0
55756.0,STARLINK-5614,PAYLOAD,2024-06-08 10:55:42,14.98333123,0.0003119,70.0006,56.0078,268.1101,91.9701,7.095e-05,7.54e-06,0.0,0 STARLINK-5614,1 55756U 23028R   24160.45535854  .00000754  00000-0  70950-4 0  9996,2 55756  70.0006  56.0078 0003119 268.1101  91.9701 14.98333123 70294,6950.183,96.107,574.216,569.88,0.0
55756.0,STARLINK-5614,PAYLOAD,2024-06-08 17:20:15,14.98322029,0.0003268,70.0013,55.3356,268.0201,92.0583,0.00026029,3.013e-05,0.0,0 STARLINK-5614,1 55756U 23028R   24160.72239965  .00003013  00000-0  26029-3 0  9998,2 55756  70.0013  55.3356 0003268 268.0201  92.0583 14.98322029 70336,6950.218,96.108,574.354,569.811,0.0
55756.0,STARLINK-5614,PAYLOAD,2024-06-08 22:08:41,14.98298554,0.0003458,70.0017,54.8305,280.9917,79.0853,0.00017171,1.955e-05,0.0,0 STARLINK-5614,1 55756U 23028R   24160.92269959  .00001955  00000-0  17171-3 0  9997,2 55756  70.0017  54.8305 0003458 280.9917  79.0853 14.98298554 70369,6950.29,96.109,574.559,569.752,0.0
55756.0,STARLINK-5614,PAYLOAD,2024-06-09 02:57:03,14.98335924,0.000307,69.9998,54.3249,271.4238,88.657,8.7734e-05,9.54e-06,0.0,0 STARLINK-5614,1 55756U 23028R   24161.12295655  .00000954  00000-0  87734-4 0  9993,2 55756  69.9998  54.3249 0003070 271.4238  88.6570 14.98335924 70395,6950.175,96.107,574.173,569.906,0.0
55756.0,STARLINK-5614,PAYLOAD,2024-06-09 22:10:40,14.98327486,0.0002391,70.0019,52.3054,263.4158,96.6728,0.00010367,1.144e-05,0.0,0 STARLINK-5614,1 55756U 23028R   24161.92408339  .00001144  00000-0  10367-3 0  9995,2 55756  70.0019  52.3054 0002391 263.4158  96.6728 14.98327486 70513,6950.201,96.107,573.727,570.404,0.0
55756.0,STARLINK-5614,PAYLOAD,2024-06-10 02:59:04,14.98338289,0.0002968,70.0006,51.8002,272.2098,87.8721,0.00017885,2.042e-05,0.0,0 STARLINK-5614,1 55756U 23028R   24162.12435510  .00002042  00000-0  17885-3 0  9999,2 55756  70.0006  51.8002 0002968 272.2098  87.8721 14.98338289 70548,6950.167,96.106,574.095,569.969,0.0
55756.0,STARLINK-5614,PAYLOAD,2024-06-10 09:23:36,14.98344948,0.0002885,70.0009,51.1272,271.7939,88.2889,2.1847e-05,1.68e-06,0.0,0 STARLINK-5614,1 55756U 23028R   24162.39139259  .00000168  00000-0  21847-4 0  9990,2 55756  70.0009  51.1272 0002885 271.7939  88.2889 14.98344948 70582,6950.147,96.106,574.017,570.007,0.0
55756.0,STARLINK-5614,PAYLOAD,2024-06-10 20:36:32,14.9834321,0.0002571,70.001,49.9495,272.7747,87.3118,0.00013429,1.51e-05,0.0,0 STARLINK-5614,1 55756U 23028R   24162.85870970  .00001510  00000-0  13429-3 0  9991,2 55756  70.0010  49.9495 0002571 272.7747  87.3118 14.98343210 70650,6950.152,96.106,573.804,570.23,0.0
55756.0,STARLINK-5614,PAYLOAD,2024-06-11 03:01:04,14.98344277,0.0002715,70.0009,49.2764,269.5953,90.4895,0.00021376,2.459e-05,0.0,0 STARLINK-5614,1 55756U 23028R   24163.12574577  .00002459  00000-0  21376-3 0  9999,2 55756  70.0009  49.2764 0002715 269.5953  90.4895 14.98344277 70698,6950.149,96.106,573.901,570.127,0.0
55756.0,STARLINK-5614,PAYLOAD,2024-06-11 09:25:36,14.98379838,0.0002174,70.0034,48.6012,281.2386,78.8529,-0.00080497,-9.696e-05,0.0,0 STARLINK-5614,1 55756U 23028R   24163.39278107 -.00009696  00000-0 -80497-3 0  9999,2 55756  70.0034  48.6012 0002174 281.2386  78.8529 14.98379838 70735,6950.039,96.104,573.415,570.393,0.0
55756.0,STARLINK-5614,PAYLOAD,2024-06-12 01:26:58,14.98326516,0.0002777,70.0009,46.9205,265.6161,94.4681,-0.00011138,-1.422e-05,0.0,0 STARLINK-5614,1 55756U 23028R   24164.06040272 -.00001422  00000-0 -11138-3 0  9999,2 55756  70.0009  46.9205 0002777 265.6161  94.4681 14.98326516 70837,6950.204,96.107,573.999,570.139,0.0
55756.0,STARLINK-5614,PAYLOAD,2024-06-12 22:16:43,14.98328277,0.0002958,70.0004,44.7314,263.7054,96.3768,-0.00012866,-1.628e-05,0.0,0 STARLINK-5614,1 55756U 23028R   24164.92828171 -.00001628  00000-0 -12866-3 0  9993,2 55756  70.0004  44.7314 0002958 263.7054  96.3768 14.98328277 70967,6950.198,96.107,574.119,570.007,0.0
55756.0,STARLINK-5614,PAYLOAD,2024-06-13 01:28:59,14.98328331,0.0002825,70.0009,44.3965,257.1402,102.9441,-0.00011471,-1.461e-05,0.0,0 STARLINK-5614,1 55756U 23028R   24165.06180143 -.00001461  00000-0 -11471-3 0  9995,2 55756  70.0009  44.3965 0002825 257.1402 102.9441 14.98328331 70982,6950.198,96.107,574.026,570.1,0.0
55756.0,STARLINK-5614,PAYLOAD,2024-06-13 09:29:39,14.98333416,0.0003061,70.0004,43.5527,260.2514,99.83,-7.7275e-05,-1.015e-05,0.0,0 STARLINK-5614,1 55756U 23028R   24165.39559685 -.00001015  00000-0 -77275-4 0  9992,2 55756  70.0004  43.5527 0003061 260.2514  99.8300 14.98333416 71039,6950.182,96.107,574.175,569.92,0.0
55756.0,STARLINK-5614,PAYLOAD,2024-06-13 22:18:44,14.98326623,0.0003169,70.0002,42.2061,267.557,92.5226,0.00012398,1.386e-05,0.0,0 STARLINK-5614,1 55756U 23028R   24165.92967793  .00001386  00000-0  12398-3 0  9997,2 55756  70.0002  42.2061 0003169 267.5570  92.5226 14.98326623 71115,6950.203,96.107,574.271,569.866,0.0
55756.0,STARLINK-5614,PAYLOAD,2024-06-14 09:31:40,14.98329076,0.000313,70.0004,41.0271,266.7344,93.3457,0.00012051,1.345e-05,0.0,0 STARLINK-5614,1 55756U 23028R   24166.39699732  .00001345  00000-0  12051-3 0  9995,2 55756  70.0004  41.0271 0003130 266.7344  93.3457 14.98329076 71182,6950.196,96.107,574.236,569.885,0.0
55756.0,STARLINK-5614,PAYLOAD,2024-06-14 20:44:37,14.98326277,0.0003134,70.0003,39.849,266.5463,93.5338,0.0001191,1.328e-05,0.0,0 STARLINK-5614,1 55756U 23028R   24166.86432041  .00001328  00000-0  11910-3 0  9999,2 55756  70.0003  39.8490 0003134 266.5463  93.5338 14.98326277 71251,6950.204,96.107,574.248,569.891,0.0
55756.0,STARLINK-5614,PAYLOAD,2024-06-15 01:33:01,14.98330948,0.0003129,70.0002,39.344,266.3265,93.7536,0.00012881,1.444e-05,0.0,0 STARLINK-5614,1 55756U 23028R   24167.06459741  .00001444  00000-0  12881-3 0  9995,2 55756  70.0002  39.3440 0003129 266.3265  93.7536 14.98330948 71287,6950.19,96.107,574.23,569.88,0.0
55756.0,STARLINK-5614,PAYLOAD,2024-06-15 22:22:45,14.98336396,0.0003118,70.0,37.1562,266.9394,93.1408,6.2175e-05,6.49e-06,0.0,0 STARLINK-5614,1 55756U 23028R   24167.93247442  .00000649  00000-0  62175-4 0  9992,2 55756  70.0000  37.1562 0003118 266.9394  93.1408 14.98336396 71413,6950.173,96.107,574.205,569.871,0.0
55756.0,STARLINK-5614,PAYLOAD,2024-06-16 01:35:01,14.98336964,0.0003112,70.0,36.8195,266.9612,93.1191,6.6321e-05,6.99e-06,0.0,0 STARLINK-5614,1 55756U 23028R   24168.06599346  .00000699  00000-0  66321-4 0  9992,2 55756  70.0000  36.8195 0003112 266.9612  93.1191 14.98336964 71430,6950.171,96.107,574.199,569.873,0.0
55756.0,STARLINK-5614,PAYLOAD,2024-06-16 22:24:46,14.98331192,0.0002864,70.0006,34.6324,264.4095,95.6737,4.4987e-05,4.44e-06,0.0,0 STARLINK-5614,1 55756U 23028R   24168.93387669  .00000444  00000-0  44987-4 0  9993,2 55756  70.0006  34.6324 0002864 264.4095  95.6737 14.98331192 71562,6950.189,96.107,574.045,570.064,0.0
55756.0,STARLINK-5614,PAYLOAD,2024-06-17 20:50:40,14.98329035,0.0002899,70.0004,32.2751,268.2878,91.7949,-7.8564e-06,-1.87e-06,0.0,0 STARLINK-5614,1 55756U 23028R   24169.86851887 -.00000187  00000-0 -78564-5 0  9999,2 55756  70.0004  32.2751 0002899 268.2878  91.7949 14.98329035 71708,6950.196,96.107,574.076,570.046,0.0
